{
  "type": "FeatureCollection",
  "features": [
    {
      "type": "Feature",
      "properties": {
        "norad_id": 46277,
        "name": "NEMO-HD",
        "group": "resource",
        "lat": 22.104493312809605,
        "lon": -126.35249629880525,
        "alt_km": 444.9829530869256,
        "timestamp": "2025-12-17T15:50:09.434663+00:00",
        "meta_object_name": "NEMO-HD",
        "meta_object_id": "2020-061F",
        "meta_epoch": "2025-12-17T07:21:32.357664",
        "meta_mean_motion": 15.40423249,
        "meta_eccentricity": 0.00015799,
        "meta_inclination": 97.2212,
        "meta_ra_of_asc_node": 50.3468,
        "meta_arg_of_pericenter": 53.2627,
        "meta_mean_anomaly": 306.8765,
        "meta_ephemeris_type": 0,
        "meta_classification_type": "U",
        "meta_norad_cat_id": 46277,
        "meta_element_set_no": 999,
        "meta_rev_at_epoch": 29394,
        "meta_bstar": 0.00022429733,
        "meta_mean_motion_dot": 8.993e-05,
        "meta_mean_motion_ddot": 0,
        "tle_line1": "1 46277U 20061F   25351.30662451  .00008993  00000+0  22430-3 0  9990",
        "tle_line2": "2 46277  97.2212  50.3468 0001579  53.2627 306.8765 15.40423249293940"
      },
      "geometry": {
        "type": "Point",
        "coordinates": [
          -126.35249629880525,
          22.104493312809605
        ]
      }
    },
    {
      "type": "Feature",
      "properties": {
        "norad_id": 46984,
        "name": "SENTINEL-6A",
        "group": "resource",
        "lat": 61.867652667226885,
        "lon": -84.17912292616863,
        "alt_km": 1336.543523969346,
        "timestamp": "2025-12-17T15:50:09.434692+00:00",
        "meta_object_name": "SENTINEL-6A",
        "meta_object_id": "2020-086A",
        "meta_epoch": "2025-12-17T04:02:44.276064",
        "meta_mean_motion": 12.80930784,
        "meta_eccentricity": 0.00077106,
        "meta_inclination": 66.039,
        "meta_ra_of_asc_node": 153.109,
        "meta_arg_of_pericenter": 269.2841,
        "meta_mean_anomaly": 90.7291,
        "meta_ephemeris_type": 0,
        "meta_classification_type": "U",
        "meta_norad_cat_id": 46984,
        "meta_element_set_no": 999,
        "meta_rev_at_epoch": 23701,
        "meta_bstar": 7.7455663e-05,
        "meta_mean_motion_dot": -4.3e-07,
        "meta_mean_motion_ddot": 0,
        "tle_line1": "1 46984U 20086A   25351.16856801 -.00000043  00000+0  77456-4 0  9998",
        "tle_line2": "2 46984  66.0390 153.1090 0007710 269.2841  90.7291 12.80930784237016"
      },
      "geometry": {
        "type": "Point",
        "coordinates": [
          -84.17912292616863,
          61.867652667226885
        ]
      }
    },
    {
      "type": "Feature",
      "properties": {
        "norad_id": 48079,
        "name": "GAOFEN-12 02",
        "group": "resource",
        "lat": -74.35072346053249,
        "lon": 15.714752043626481,
        "alt_km": 636.9540336764185,
        "timestamp": "2025-12-17T15:50:09.434704+00:00",
        "meta_object_name": "GAOFEN-12 02",
        "meta_object_id": "2021-026A",
        "meta_epoch": "2025-12-17T06:26:59.924832",
        "meta_mean_motion": 14.80680592,
        "meta_eccentricity": 0.00036023,
        "meta_inclination": 97.9852,
        "meta_ra_of_asc_node": 345.2533,
        "meta_arg_of_pericenter": 92.0219,
        "meta_mean_anomaly": 268.1405,
        "meta_ephemeris_type": 0,
        "meta_classification_type": "U",
        "meta_norad_cat_id": 48079,
        "meta_element_set_no": 999,
        "meta_rev_at_epoch": 25484,
        "meta_bstar": 6.3351159e-05,
        "meta_mean_motion_dot": 4.34e-06,
        "meta_mean_motion_ddot": 0,
        "tle_line1": "1 48079U 21026A   25351.26874913  .00000434  00000+0  63351-4 0  9997",
        "tle_line2": "2 48079  97.9852 345.2533 0003602  92.0219 268.1405 14.80680592254841"
      },
      "geometry": {
        "type": "Point",
        "coordinates": [
          15.714752043626481,
          -74.35072346053249
        ]
      }
    },
    {
      "type": "Feature",
      "properties": {
        "norad_id": 48268,
        "name": "PLEIADES NEO 3",
        "group": "resource",
        "lat": 7.860908911374548,
        "lon": 62.9324908195722,
        "alt_km": 625.8515482593793,
        "timestamp": "2025-12-17T15:50:09.434714+00:00",
        "meta_object_name": "PLEIADES NEO 3",
        "meta_object_id": "2021-034A",
        "meta_epoch": "2025-12-17T07:41:46.872096",
        "meta_mean_motion": 14.8167515,
        "meta_eccentricity": 0.00013308,
        "meta_inclination": 97.8948,
        "meta_ra_of_asc_node": 63.696,
        "meta_arg_of_pericenter": 91.1912,
        "meta_mean_anomaly": 268.9453,
        "meta_ephemeris_type": 0,
        "meta_classification_type": "U",
        "meta_norad_cat_id": 48268,
        "meta_element_set_no": 999,
        "meta_rev_at_epoch": 25072,
        "meta_bstar": 0.00015967996,
        "meta_mean_motion_dot": 1.205e-05,
        "meta_mean_motion_ddot": 0,
        "tle_line1": "1 48268U 21034A   25351.32068139  .00001205  00000+0  15968-3 0  9995",
        "tle_line2": "2 48268  97.8948  63.6960 0001330  91.1912 268.9453 14.81675150250726"
      },
      "geometry": {
        "type": "Point",
        "coordinates": [
          62.9324908195722,
          7.860908911374548
        ]
      }
    },
    {
      "type": "Feature",
      "properties": {
        "norad_id": 49070,
        "name": "PLEIADES NEO 4",
        "group": "resource",
        "lat": -8.169510273480006,
        "lon": -117.11549623231896,
        "alt_km": 628.1126048376655,
        "timestamp": "2025-12-17T15:50:09.434725+00:00",
        "meta_object_name": "PLEIADES NEO 4",
        "meta_object_id": "2021-073E",
        "meta_epoch": "2025-12-16T19:32:25.031904",
        "meta_mean_motion": 14.81671846,
        "meta_eccentricity": 0.0001248,
        "meta_inclination": 97.8946,
        "meta_ra_of_asc_node": 63.1925,
        "meta_arg_of_pericenter": 98.3982,
        "meta_mean_anomaly": 261.7372,
        "meta_ephemeris_type": 0,
        "meta_classification_type": "U",
        "meta_norad_cat_id": 49070,
        "meta_element_set_no": 999,
        "meta_rev_at_epoch": 23436,
        "meta_bstar": 1.737636e-05,
        "meta_mean_motion_dot": 8.5e-07,
        "meta_mean_motion_ddot": 0,
        "tle_line1": "1 49070U 21073E   25350.81417861  .00000085  00000+0  17376-4 0  9994",
        "tle_line2": "2 49070  97.8946  63.1925 0001248  98.3982 261.7372 14.81671846234367"
      },
      "geometry": {
        "type": "Point",
        "coordinates": [
          -117.11549623231896,
          -8.169510273480006
        ]
      }
    },
    {
      "type": "Feature",
      "properties": {
        "norad_id": 49260,
        "name": "LANDSAT 9",
        "group": "resource",
        "lat": 48.91795957450501,
        "lon": -110.76923447392748,
        "alt_km": 697.5270857633695,
        "timestamp": "2025-12-17T15:50:09.434736+00:00",
        "meta_object_name": "LANDSAT 9",
        "meta_object_id": "2021-088A",
        "meta_epoch": "2025-12-17T03:42:12.322656",
        "meta_mean_motion": 14.57102532,
        "meta_eccentricity": 0.00011277,
        "meta_inclination": 98.2091,
        "meta_ra_of_asc_node": 59.2013,
        "meta_arg_of_pericenter": 90.0255,
        "meta_mean_anomaly": 270.1073,
        "meta_ephemeris_type": 0,
        "meta_classification_type": "U",
        "meta_norad_cat_id": 49260,
        "meta_element_set_no": 999,
        "meta_rev_at_epoch": 22449,
        "meta_bstar": 9.3579077e-05,
        "meta_mean_motion_dot": 3.76e-06,
        "meta_mean_motion_ddot": 0,
        "tle_line1": "1 49260U 21088A   25351.15430929  .00000376  00000+0  93579-4 0  9991",
        "tle_line2": "2 49260  98.2091  59.2013 0001127  90.0255 270.1073 14.57102532224495"
      },
      "geometry": {
        "type": "Point",
        "coordinates": [
          -110.76923447392748,
          48.91795957450501
        ]
      }
    },
    {
      "type": "Feature",
      "properties": {
        "norad_id": 51444,
        "name": "CSG-2",
        "group": "resource",
        "lat": -48.76119900823349,
        "lon": -16.182533570981075,
        "alt_km": 630.2735406742404,
        "timestamp": "2025-12-17T15:50:09.434746+00:00",
        "meta_object_name": "CSG-2",
        "meta_object_id": "2022-008A",
        "meta_epoch": "2025-12-17T08:19:24.802176",
        "meta_mean_motion": 14.82150297,
        "meta_eccentricity": 0.00014751,
        "meta_inclination": 97.8802,
        "meta_ra_of_asc_node": 172.5998,
        "meta_arg_of_pericenter": 84.6177,
        "meta_mean_anomaly": 275.5204,
        "meta_ephemeris_type": 0,
        "meta_classification_type": "U",
        "meta_norad_cat_id": 51444,
        "meta_element_set_no": 999,
        "meta_rev_at_epoch": 20965,
        "meta_bstar": 0.00011225906,
        "meta_mean_motion_dot": 8.42e-06,
        "meta_mean_motion_ddot": 0,
        "tle_line1": "1 51444U 22008A   25351.34681484  .00000842  00000+0  11226-3 0  9992",
        "tle_line2": "2 51444  97.8802 172.5998 0001475  84.6177 275.5204 14.82150297209651"
      },
      "geometry": {
        "type": "Point",
        "coordinates": [
          -16.182533570981075,
          -48.76119900823349
        ]
      }
    }
  ]
}